{"type":"FeatureCollection","features":[{"type":"Feature","geometry":{"type":"Point","coordinates":[4.3529899959104625,50.852570002512216]},"properties":{"name_fr":"Alhambra","adressee":"Boulevard Emile Jacqmain, 14 - 1000 Bruxelles","operator_fr":"Interparking","contact_mail":null,"contact_phone":"+32 2 549 58 11","capacity":191,"disabledcapacity":0,"floors":4,"maxwidth":-999.0,"maxheight":2.0,"commune_gemeente":"Bruxelles - Brussel"}},{"type":"Feature","geometry":{"type":"Point","coordinates":[4.359139995909674,50.85928000251098]},"properties":{"name_fr":"CCN","adressee":"Rue du Progr\u00e8s, 80 - 1000 Bruxelles","operator_fr":"Interparking","contact_mail":null,"contact_phone":"+32 2 549 58 11","capacity":115,"disabledcapacity":1,"floors":1,"maxwidth":-999.0,"maxheight":2.35,"commune_gemeente":"Bruxelles - Brussel"}},{"type":"Feature","geometry":{"type":"Point","coordinates":[4.345203995912408,50.851953002511486]},"properties":{"name_fr":"Lepage","adressee":"Rue L\u00e9on Lepage, 23 - 1000 Bruxelles","operator_fr":"Q-Park Belgium","contact_mail":null,"contact_phone":"+32 2 711 17 00","capacity":691,"disabledcapacity":4,"floors":14,"maxwidth":2.5,"maxheight":1.9,"commune_gemeente":"Bruxelles - Brussel"}},{"type":"Feature","geometry":{"type":"Point","coordinates":[4.349797995909256,50.83340900251744]},"properties":{"name_fr":"Porte de Hal - Parvis","adressee":"Boulevard de Waterloo, 103 - 1000 Bruxelles","operator_fr":"Interparking","contact_mail":null,"contact_phone":"+32 2 549 58 11","capacity":510,"disabledcapacity":11,"floors":4,"maxwidth":-999.0,"maxheight":1.9,"commune_gemeente":"Bruxelles - Brussel"}},{"type":"Feature","geometry":{"type":"Point","coordinates":[4.368124995906517,50.84975300251471]},"properties":{"name_fr":"Spectrum","adressee":"Petite rue du Nord, 6 - 1000 Bruxelles","operator_fr":"Indigo Belgium","contact_mail":null,"contact_phone":null,"capacity":68,"disabledcapacity":4,"floors":3,"maxwidth":-999.0,"maxheight":-999.0,"commune_gemeente":"Bruxelles - Brussel"}},{"type":"Feature","geometry":{"type":"Point","coordinates":[4.358674995907495,50.83700600251735]},"properties":{"name_fr":"Toison d'Or","adressee":"Avenue de la Toison d'Or, 20 - 1000 Bruxelles","operator_fr":"Interparking","contact_mail":null,"contact_phone":"+32 2 549 58 11","capacity":340,"disabledcapacity":8,"floors":4,"maxwidth":-999.0,"maxheight":1.9,"commune_gemeente":"Bruxelles - Brussel"}},{"type":"Feature","geometry":{"type":"Point","coordinates":[4.354795995909071,50.84361600251505]},"properties":{"name_fr":"Albertine Square","adressee":"Place de la Justice, 16 - 1000 Bruxelles","operator_fr":"Interparking","contact_mail":null,"contact_phone":"+32 2 549 58 11","capacity":703,"disabledcapacity":15,"floors":4,"maxwidth":-999.0,"maxheight":2.0,"commune_gemeente":"Bruxelles - Brussel"}},{"type":"Feature","geometry":{"type":"Point","coordinates":[4.355165995909274,50.84660200251419]},"properties":{"name_fr":"Grand Place","adressee":"Rue du Marche aux Herbes, 104 - 1000 Bruxelles","operator_fr":"Interparking","contact_mail":null,"contact_phone":"+32 2 549 58 11","capacity":992,"disabledcapacity":20,"floors":8,"maxwidth":2.41,"maxheight":2.0,"commune_gemeente":"Bruxelles - Brussel"}},{"type":"Feature","geometry":{"type":"Point","coordinates":[4.362151995908143,50.85153700251356]},"properties":{"name_fr":"Pacheco","adressee":"Boulevard Pach\u00e9co, 7 - 1000 Bruxelles","operator_fr":"Q-Park Belgium","contact_mail":null,"contact_phone":"+32 2 711 17 00","capacity":344,"disabledcapacity":0,"floors":1,"maxwidth":2.5,"maxheight":2.1,"commune_gemeente":"Bruxelles - Brussel"}},{"type":"Feature","geometry":{"type":"Point","coordinates":[4.353740995907128,50.822522002521026]},"properties":{"name_fr":"Vleurgat","adressee":"Chauss\u00e9e de Vleurgat, 164-166 - 1000 Bruxelles","operator_fr":"Effia","contact_mail":null,"contact_phone":"+32 478 90 00 51","capacity":90,"disabledcapacity":-999,"floors":4,"maxwidth":2.2,"maxheight":1.9,"commune_gemeente":"Bruxelles - Brussel"}},{"type":"Feature","geometry":{"type":"Point","coordinates":[4.360114995908929,50.8544490025125]},"properties":{"name_fr":"Botanique-Saint-Jean","adressee":"Boulevard du Jardin Botanique, 29 - 1000 Bruxelles","operator_fr":"Interparking","contact_mail":null,"contact_phone":"+32 2 549 58 11","capacity":381,"disabledcapacity":8,"floors":7,"maxwidth":-999.0,"maxheight":2.0,"commune_gemeente":"Bruxelles - Brussel"}},{"type":"Feature","geometry":{"type":"Point","coordinates":[4.357909995909345,50.85303600251262]},"properties":{"name_fr":"Centre","adressee":"Rue du Damier, 26 - 1000 Bruxelles","operator_fr":"Q-Park Belgium","contact_mail":null,"contact_phone":"+32 2 711 17 00","capacity":780,"disabledcapacity":16,"floors":7,"maxwidth":2.5,"maxheight":1.9,"commune_gemeente":"Bruxelles - Brussel"}},{"type":"Feature","geometry":{"type":"Point","coordinates":[4.345503995912141,50.85111400251181]},"properties":{"name_fr":"Dansaert","adressee":"Place du nouveau march\u00e9 aux grains, 2 - 1000 Bruxelles","operator_fr":"Q-Park Belgium","contact_mail":null,"contact_phone":"+32 2 711 17 00","capacity":211,"disabledcapacity":6,"floors":14,"maxwidth":2.5,"maxheight":2.1,"commune_gemeente":"Bruxelles - Brussel"}},{"type":"Feature","geometry":{"type":"Point","coordinates":[4.3521129959105656,50.850916002512626]},"properties":{"name_fr":"De Brouck\u00e8re","adressee":"Boulevard Anspach, 2 - 1000 Bruxelles","operator_fr":"Interparking","contact_mail":null,"contact_phone":"+32 2 549 58 11","capacity":490,"disabledcapacity":0,"floors":3,"maxwidth":-999.0,"maxheight":2.0,"commune_gemeente":"Bruxelles - Brussel"}},{"type":"Feature","geometry":{"type":"Point","coordinates":[4.361332995906981,50.83860100251723]},"properties":{"name_fr":"Deux Portes","adressee":"Boulevard de Waterloo, 2A - 1000 Bruxelles","operator_fr":"Interparking","contact_mail":null,"contact_phone":"+32 2 549 58 11","capacity":929,"disabledcapacity":32,"floors":6,"maxwidth":-999.0,"maxheight":1.9,"commune_gemeente":"Bruxelles - Brussel"}},{"type":"Feature","geometry":{"type":"Point","coordinates":[4.362515995907728,50.84903900251432]},"properties":{"name_fr":"Royal","adressee":"Rue Royale, 128 - 1000 Bruxelles","operator_fr":"Indigo Belgium","contact_mail":null,"contact_phone":"+32 2 647 20 03","capacity":199,"disabledcapacity":6,"floors":3,"maxwidth":2.0,"maxheight":1.9,"commune_gemeente":"Bruxelles - Brussel"}},{"type":"Feature","geometry":{"type":"Point","coordinates":[4.3590659959091855,50.85381200251254]},"properties":{"name_fr":"City 2","adressee":"Rue Des Cendres, 8 - 1000 Bruxelles","operator_fr":"Interparking","contact_mail":null,"contact_phone":"+32 2 549 58 11","capacity":380,"disabledcapacity":9,"floors":7,"maxwidth":-999.0,"maxheight":2.05,"commune_gemeente":"Bruxelles - Brussel"}},{"type":"Feature","geometry":{"type":"Point","coordinates":[4.374639995908057,50.87978000250681]},"properties":{"name_fr":"Docks Bruxsel","adressee":"Boulevard Lambermont, 1 - 1000 Bruxelles","operator_fr":"Indigo Belgium","contact_mail":null,"contact_phone":"+32 2 431 00 02","capacity":1670,"disabledcapacity":-999,"floors":2,"maxwidth":-999.0,"maxheight":2.1,"commune_gemeente":"Bruxelles - Brussel"}},{"type":"Feature","geometry":{"type":"Point","coordinates":[4.361495995908423,50.85251400251317]},"properties":{"name_fr":"Passage 44","adressee":"Rue de l'Ommegang, 16 - 1000 Bruxelles","operator_fr":"Interparking","contact_mail":null,"contact_phone":"+32 2 549 58 11","capacity":525,"disabledcapacity":6,"floors":4,"maxwidth":-999.0,"maxheight":2.0,"commune_gemeente":"Bruxelles - Brussel"}},{"type":"Feature","geometry":{"type":"Point","coordinates":[4.359205995909278,50.855353002512146]},"properties":{"name_fr":"Rogier","adressee":"Place Charles Rogier, 1 - 1000 Bruxelles","operator_fr":"Interparking","contact_mail":null,"contact_phone":"+32 2 549 58 11","capacity":509,"disabledcapacity":11,"floors":5,"maxwidth":-999.0,"maxheight":1.9,"commune_gemeente":"Bruxelles - Brussel"}},{"type":"Feature","geometry":{"type":"Point","coordinates":[4.353418995909994,50.84929700251323]},"properties":{"name_fr":"Ecuyer","adressee":"Rue de l'Ecuyer, 11 - 1000 Bruxelles","operator_fr":"Interparking","contact_mail":null,"contact_phone":"+32 2 549 54 54","capacity":484,"disabledcapacity":10,"floors":9,"maxwidth":-999.0,"maxheight":2.0,"commune_gemeente":"Bruxelles - Brussel"}},{"type":"Feature","geometry":{"type":"Point","coordinates":[4.3699649959052556,50.84289200251694]},"properties":{"name_fr":"Industrie","adressee":"Rue de l'Industrie, 26 - 1000 Etterbeek","operator_fr":"Interparking","contact_mail":null,"contact_phone":"+32 2 549 58 11","capacity":311,"disabledcapacity":4,"floors":5,"maxwidth":-999.0,"maxheight":1.9,"commune_gemeente":"Bruxelles - Brussel"}},{"type":"Feature","geometry":{"type":"Point","coordinates":[4.353903995910046,50.85045200251294]},"properties":{"name_fr":"Monnaie","adressee":"Rue du Foss\u00e9 aux Loups, 7 - 1000 Bruxelles","operator_fr":"Interparking","contact_mail":null,"contact_phone":"+32 2 549 58 11","capacity":589,"disabledcapacity":10,"floors":3,"maxwidth":-999.0,"maxheight":1.9,"commune_gemeente":"Bruxelles - Brussel"}},{"type":"Feature","geometry":{"type":"Point","coordinates":[4.335512995919604,50.89740100249731]},"properties":{"name_fr":"P+R HEYSEL","adressee":"Avenue Imp\u00e9ratrice Charlotte - 1020 Laeken","operator_fr":"Parking Brussels","contact_mail":null,"contact_phone":null,"capacity":100,"disabledcapacity":-999,"floors":-999,"maxwidth":-999.0,"maxheight":2.1,"commune_gemeente":"Laeken - Laken"}},{"type":"Feature","geometry":{"type":"Point","coordinates":[4.345957995911477,50.844800002513644]},"properties":{"name_fr":"Rouppe - Fontainas","adressee":"Boulevard Maurice Lemmonier, 10 - 1000 Bruxelles","operator_fr":"Hobinvest","contact_mail":null,"contact_phone":"+32 2 507 00 76","capacity":260,"disabledcapacity":-999,"floors":4,"maxwidth":-999.0,"maxheight":1.7,"commune_gemeente":"Bruxelles - Brussel"}},{"type":"Feature","geometry":{"type":"Point","coordinates":[4.3528399959089485,50.83795600251642]},"properties":{"name_fr":"Sablon-Poelaert","adressee":"Place Poelaert - 1000 Bruxelles","operator_fr":"Interparking","contact_mail":null,"contact_phone":"+32 2 549 58 11","capacity":499,"disabledcapacity":10,"floors":4,"maxwidth":-999.0,"maxheight":2.0,"commune_gemeente":"Bruxelles - Brussel"}},{"type":"Feature","geometry":{"type":"Point","coordinates":[4.352269995911745,50.86316000250908]},"properties":{"name_fr":"Up-site","adressee":"Quai de Willebroeck, 35 - 1000 Bruxelles","operator_fr":"Indigo Belgium","contact_mail":null,"contact_phone":"+32 2 432 80 10","capacity":142,"disabledcapacity":-999,"floors":1,"maxwidth":-999.0,"maxheight":1.9,"commune_gemeente":"Bruxelles - Brussel"}},{"type":"Feature","geometry":{"type":"Point","coordinates":[4.354439995909364,50.84525000251451]},"properties":{"name_fr":"Warwick Brussels","adressee":"Rue Duquesnoy, 5 - 1000 Bruxelles","operator_fr":"Hotel Warwick","contact_mail":null,"contact_phone":"+32 2 505 55 55","capacity":92,"disabledcapacity":-999,"floors":3,"maxwidth":-999.0,"maxheight":1.9,"commune_gemeente":"Bruxelles - Brussel"}}]}