{"type":"FeatureCollection","features":[{"type":"Feature","geometry":{"coordinates":[4.35117,50.84975],"type":"Point"},"properties":{"id_opendata":"FTB_000112","category_fr":"borne","name_fr":"Borne \u00e0 eau Gr\u00e9try","status_fr":"actif","type_fr":"standard","access_type_fr":"accessible 24h\/24","street_art_fr":"Borne Street Art","dog_friendly_fr":"?","location_fr":"Bd. Anspach \/ Rue Gr\u00e9try","address_fr":"Boulevard Anspach, 21","address_details_fr":"Au carrefour avec la rue Gr\u00e9try.","postalcode":"1000","municipality_fr":"Bruxelles","territory_fr":"Pentagone","google_maps":"https:\/\/www.google.com\/maps\/search\/?api=1&query=50.84975%2C4.35117","google_street_view":"https:\/\/www.google.com\/maps\/@?api=1&map_action=pano&viewpoint=50.84975%2C4.35117","geo_point_2d":{"lon":4.35117,"lat":50.84975},"ifu_type":"Eau potable gratuite \/ Gratis drinkwater \/ Free drinking water"}},{"type":"Feature","geometry":{"coordinates":[4.35304,50.85193],"type":"Point"},"properties":{"id_opendata":"FTB_000116","category_fr":"borne","name_fr":"Borne \u00e0 eau De Brouck\u00e8re sud","status_fr":"actif","type_fr":"standard","access_type_fr":"accessible 24h\/24","street_art_fr":null,"dog_friendly_fr":"?","location_fr":"Place de Brouck\u00e8re","address_fr":"Boulevard Emile Jacqmain, 2","address_details_fr":"Au coin avec la rue des Hirondelles, devant le n\u00b048 sur la place.","postalcode":"1000","municipality_fr":"Bruxelles","territory_fr":"Pentagone","google_maps":"https:\/\/www.google.com\/maps\/search\/?api=1&query=50.85193%2C4.35304","google_street_view":"https:\/\/www.google.com\/maps\/@?api=1&map_action=pano&viewpoint=50.85193%2C4.35304","geo_point_2d":{"lon":4.35304,"lat":50.85193},"ifu_type":"Eau potable gratuite \/ Gratis drinkwater \/ Free drinking water"}},{"type":"Feature","geometry":{"coordinates":[4.34289,50.85128],"type":"Point"},"properties":{"id_opendata":"FTB_000123","category_fr":"borne","name_fr":"Borne \u00e0 eau Jacques Brel","status_fr":"actif","type_fr":"standard","access_type_fr":"accessible selon horaires","street_art_fr":"Borne Street Art","dog_friendly_fr":"?","location_fr":"Rue du Houblon \/ Squ. Jacques Brel","address_fr":"Rue Yvonne Jospa, 17","address_details_fr":"Au coin de la Rue du Houblon avec la Rue Yvonne Jospa, sur le terrain basket.","postalcode":"1000","municipality_fr":"Bruxelles","territory_fr":"Pentagone","google_maps":"https:\/\/www.google.com\/maps\/search\/?api=1&query=50.85128%2C4.34289","google_street_view":"https:\/\/www.google.com\/maps\/@?api=1&map_action=pano&viewpoint=50.85128%2C4.34289","geo_point_2d":{"lon":4.34289,"lat":50.85128},"ifu_type":"Eau potable gratuite \/ Gratis drinkwater \/ Free drinking water"}},{"type":"Feature","geometry":{"coordinates":[4.35042,50.8587],"type":"Point"},"properties":{"id_opendata":"FTB_000128","category_fr":"borne","name_fr":"Borne \u00e0 eau Ferme Maximilien","status_fr":"actif","type_fr":"standard","access_type_fr":"accessible selon horaires","street_art_fr":null,"dog_friendly_fr":"?","location_fr":"Quai du Batelage","address_fr":"Quai du Batelage, 2","address_details_fr":"Adoss\u00e9e au b\u00e2timent de la ferme.","postalcode":"1000","municipality_fr":"Bruxelles","territory_fr":"Nord","google_maps":"https:\/\/www.google.com\/maps\/search\/?api=1&query=50.8587%2C4.35042","google_street_view":"https:\/\/www.google.com\/maps\/@?api=1&map_action=pano&viewpoint=50.8587%2C4.35042","geo_point_2d":{"lon":4.35042,"lat":50.8587},"ifu_type":"Eau potable gratuite \/ Gratis drinkwater \/ Free drinking water"}},{"type":"Feature","geometry":{"coordinates":[4.36335,50.84522],"type":"Point"},"properties":{"id_opendata":"FTB_000131","category_fr":"borne","name_fr":"Borne \u00e0 eau Parc Bxl centre","status_fr":"actif","type_fr":"standard","access_type_fr":"accessible 24h\/24","street_art_fr":null,"dog_friendly_fr":"?","location_fr":"Rue Royale \/ All\u00e9e Zinner","address_fr":"Rue de la Loi, 6","address_details_fr":"En face \u00e0 la rue Montagne du Parc, pr\u00e8s du Th\u00e9\u00e2tre Royal du Parc.","postalcode":"1000","municipality_fr":"Bruxelles","territory_fr":"Pentagone","google_maps":"https:\/\/www.google.com\/maps\/search\/?api=1&query=50.84522%2C4.36335","google_street_view":"https:\/\/www.google.com\/maps\/@?api=1&map_action=pano&viewpoint=50.84522%2C4.36335","geo_point_2d":{"lon":4.36335,"lat":50.84522},"ifu_type":"Eau potable gratuite \/ Gratis drinkwater \/ Free drinking water"}},{"type":"Feature","geometry":{"coordinates":[4.37977,50.80704],"type":"Point"},"properties":{"id_opendata":"FTB_000145","category_fr":"borne","name_fr":"Borne \u00e0 eau Attelages","status_fr":"actif","type_fr":"standard","access_type_fr":"accessible 24h\/24","street_art_fr":null,"dog_friendly_fr":"?","location_fr":"Carrefour des Attelages","address_fr":"Carrefour des Attelages, 1","address_details_fr":"En face de l\u2019\u00eele du Chalet Robinson.","postalcode":"1000","municipality_fr":"Bruxelles","territory_fr":"Louise","google_maps":"https:\/\/www.google.com\/maps\/search\/?api=1&query=50.80704%2C4.37977","google_street_view":"https:\/\/www.google.com\/maps\/@?api=1&map_action=pano&viewpoint=50.80704%2C4.37977","geo_point_2d":{"lon":4.37977,"lat":50.80704},"ifu_type":"Eau potable gratuite \/ Gratis drinkwater \/ Free drinking water"}},{"type":"Feature","geometry":{"coordinates":[4.38349,50.80535],"type":"Point"},"properties":{"id_opendata":"FTB_000146","category_fr":"borne","name_fr":"Borne \u00e0 eau Sapini\u00e8re","status_fr":"actif","type_fr":"standard","access_type_fr":"accessible 24h\/24","street_art_fr":null,"dog_friendly_fr":"?","location_fr":"Av. de la Sapini\u00e8re","address_fr":"Avenue Victoria, 36","address_details_fr":"Sur la rocade auto \u00e0 l\u2019est du Chalet Robinson.","postalcode":"1000","municipality_fr":"Bruxelles","territory_fr":"Louise","google_maps":"https:\/\/www.google.com\/maps\/search\/?api=1&query=50.80535%2C4.38349","google_street_view":"https:\/\/www.google.com\/maps\/@?api=1&map_action=pano&viewpoint=50.80535%2C4.38349","geo_point_2d":{"lon":4.38349,"lat":50.80535},"ifu_type":"Eau potable gratuite \/ Gratis drinkwater \/ Free drinking water"}},{"type":"Feature","geometry":{"coordinates":[4.35085,50.87537],"type":"Point"},"properties":{"id_opendata":"FTB_000152","category_fr":"borne","name_fr":"Borne \u00e0 eau L'Horizon","status_fr":"actif","type_fr":"standard","access_type_fr":"acc\u00e8s r\u00e9serv\u00e9","street_art_fr":null,"dog_friendly_fr":"?","location_fr":"Rue de la Comtesse de Flandre","address_fr":"Rue de la Comtesse de Flandre, 71","address_details_fr":"Accessible via la rue de la Comtesse de Flandre.","postalcode":"1020","municipality_fr":"Bruxelles","territory_fr":"Laeken","google_maps":"https:\/\/www.google.com\/maps\/search\/?api=1&query=50.87537%2C4.35085","google_street_view":"https:\/\/www.google.com\/maps\/@?api=1&map_action=pano&viewpoint=50.87537%2C4.35085","geo_point_2d":{"lon":4.35085,"lat":50.87537},"ifu_type":"Eau potable gratuite \/ Gratis drinkwater \/ Free drinking water"}},{"type":"Feature","geometry":{"coordinates":[4.32239,50.89554],"type":"Point"},"properties":{"id_opendata":"FTB_000155","category_fr":"borne","name_fr":"Borne \u00e0 eau Cit\u00e9 Mod\u00e8le","status_fr":"actif","type_fr":"standard","access_type_fr":"accessible 24h\/24","street_art_fr":"Borne Street Art","dog_friendly_fr":"?","location_fr":"Square de la Turquoise","address_fr":"Square de la Turquoise, 10","address_details_fr":"Cit\u00e9 mod\u00e8le, sous le bloc 6, vers l\u2019aire de jeu \u00e0 c\u00f4t\u00e9 des tables pingpong.","postalcode":"1020","municipality_fr":"Bruxelles","territory_fr":"Laeken","google_maps":"https:\/\/www.google.com\/maps\/search\/?api=1&query=50.89554%2C4.32239","google_street_view":"https:\/\/www.google.com\/maps\/@?api=1&map_action=pano&viewpoint=50.89554%2C4.32239","geo_point_2d":{"lon":4.32239,"lat":50.89554},"ifu_type":"Eau potable gratuite \/ Gratis drinkwater \/ Free drinking water"}},{"type":"Feature","geometry":{"coordinates":[4.34635,50.84516],"type":"Point"},"properties":{"id_opendata":"FTB_000108","category_fr":"borne","name_fr":"Borne \u00e0 eau Fontainas sud","status_fr":"actif","type_fr":"standard","access_type_fr":"accessible 24h\/24","street_art_fr":null,"dog_friendly_fr":"?","location_fr":"Place Fontainas","address_fr":"Place Fontainas, 28","address_details_fr":"En face du n\u00b08, c\u00f4t\u00e9 entr\u00e9e station m\u00e9tro.","postalcode":"1000","municipality_fr":"Bruxelles","territory_fr":"Pentagone","google_maps":"https:\/\/www.google.com\/maps\/search\/?api=1&query=50.84516%2C4.34635","google_street_view":"https:\/\/www.google.com\/maps\/@?api=1&map_action=pano&viewpoint=50.84516%2C4.34635","geo_point_2d":{"lon":4.34635,"lat":50.84516},"ifu_type":"Eau potable gratuite \/ Gratis drinkwater \/ Free drinking water"}},{"type":"Feature","geometry":{"coordinates":[4.35016,50.84893],"type":"Point"},"properties":{"id_opendata":"FTB_000111","category_fr":"borne","name_fr":"Borne \u00e0 eau March\u00e9 aux Poulets","status_fr":"actif","type_fr":"standard","access_type_fr":"accessible 24h\/24","street_art_fr":"Borne Street Art","dog_friendly_fr":"?","location_fr":"Bd. Anspach \/ Rue du M. aux Poulets","address_fr":"Boulevard Anspach, 63","address_details_fr":"Au carrefour avec la rue March\u00e9 aux Poulets.","postalcode":"1000","municipality_fr":"Bruxelles","territory_fr":"Pentagone","google_maps":"https:\/\/www.google.com\/maps\/search\/?api=1&query=50.84893%2C4.35016","google_street_view":"https:\/\/www.google.com\/maps\/@?api=1&map_action=pano&viewpoint=50.84893%2C4.35016","geo_point_2d":{"lon":4.35016,"lat":50.84893},"ifu_type":"Eau potable gratuite \/ Gratis drinkwater \/ Free drinking water"}},{"type":"Feature","geometry":{"coordinates":[4.364619,50.845874],"type":"Point"},"properties":{"id_opendata":"FTB_000130","category_fr":"borne","name_fr":"Borne \u00e0 eau Parc Bxl nord","status_fr":"actif","type_fr":"standard","access_type_fr":"accessible 24h\/24","street_art_fr":null,"dog_friendly_fr":"?","location_fr":"Rue de la Loi \/ All\u00e9e des Palais","address_fr":"Rue de la Loi, 1","address_details_fr":"En face \u00e0 la rue Royale, entre l'all\u00e9e Zinner et des Bailles.","postalcode":"1000","municipality_fr":"Bruxelles","territory_fr":"Pentagone","google_maps":"https:\/\/www.google.com\/maps\/search\/?api=1&query=50.845874%2C4.364619","google_street_view":"https:\/\/www.google.com\/maps\/@?api=1&map_action=pano&viewpoint=50.845874%2C4.364619","geo_point_2d":{"lon":4.364619,"lat":50.845874},"ifu_type":"Eau potable gratuite \/ Gratis drinkwater \/ Free drinking water"}},{"type":"Feature","geometry":{"coordinates":[4.37902,50.8439],"type":"Point"},"properties":{"id_opendata":"FTB_000133","category_fr":"borne","name_fr":"Borne \u00e0 eau Vall\u00e9e du Maelbeek","status_fr":"actif","type_fr":"standard","access_type_fr":"accessible 24h\/24","street_art_fr":null,"dog_friendly_fr":"?","location_fr":"Rue du Taciturne","address_fr":"Rue Joseph II, 153","address_details_fr":"Dans le haut du petit parc au coin de la ch\u00e9e d\u2019Etterbeek et de la rue Joseph II.","postalcode":"1040","municipality_fr":"Bruxelles","territory_fr":"Nord-Est","google_maps":"https:\/\/www.google.com\/maps\/search\/?api=1&query=50.8439%2C4.37902","google_street_view":"https:\/\/www.google.com\/maps\/@?api=1&map_action=pano&viewpoint=50.8439%2C4.37902","geo_point_2d":{"lon":4.37902,"lat":50.8439},"ifu_type":"Eau potable gratuite \/ Gratis drinkwater \/ Free drinking water"}},{"type":"Feature","geometry":{"coordinates":[4.35604,50.83791],"type":"Point"},"properties":{"id_opendata":"FTB_000135","category_fr":"borne","name_fr":"Borne \u00e0 eau Yourcenar","status_fr":"actif","type_fr":"standard","access_type_fr":"accessible selon horaires","street_art_fr":null,"dog_friendly_fr":"?","location_fr":"Rue aux Laines \/ Pasg. M. Yourcenar","address_fr":"Rue aux Laines, 30","address_details_fr":"Entr\u00e9e Rue aux laines, passage M. Yourcenar.","postalcode":"1000","municipality_fr":"Bruxelles","territory_fr":"Pentagone","google_maps":"https:\/\/www.google.com\/maps\/search\/?api=1&query=50.83791%2C4.35604","google_street_view":"https:\/\/www.google.com\/maps\/@?api=1&map_action=pano&viewpoint=50.83791%2C4.35604","geo_point_2d":{"lon":4.35604,"lat":50.83791},"ifu_type":"Eau potable gratuite \/ Gratis drinkwater \/ Free drinking water"}},{"type":"Feature","geometry":{"coordinates":[4.34449,50.83926],"type":"Point"},"properties":{"id_opendata":"FTB_000140","category_fr":"borne","name_fr":"Borne \u00e0 eau Querelle","status_fr":"actif","type_fr":"standard","access_type_fr":"accessible 24h\/24","street_art_fr":null,"dog_friendly_fr":"?","location_fr":"Rue Querelle","address_fr":"Rue Terre-Neuve, 132","address_details_fr":"Au croisement avec la rue Vanderhaegen et rue de la Querelle.","postalcode":"1000","municipality_fr":"Bruxelles","territory_fr":"Pentagone","google_maps":"https:\/\/www.google.com\/maps\/search\/?api=1&query=50.83926%2C4.34449","google_street_view":"https:\/\/www.google.com\/maps\/@?api=1&map_action=pano&viewpoint=50.83926%2C4.34449","geo_point_2d":{"lon":4.34449,"lat":50.83926},"ifu_type":"Eau potable gratuite \/ Gratis drinkwater \/ Free drinking water"}},{"type":"Feature","geometry":{"coordinates":[4.37232,50.81203],"type":"Point"},"properties":{"id_opendata":"FTB_000143","category_fr":"borne","name_fr":"Borne \u00e0 eau Jeu de Criquet","status_fr":"actif","type_fr":"standard","access_type_fr":"accessible 24h\/24","street_art_fr":null,"dog_friendly_fr":"?","location_fr":"Chemin du Croquet","address_fr":"Chemin du Croquet, 1","address_details_fr":"A l\u2019entr\u00e9e du parking du restaurant \u00abJeux d\u2019Hiver\u00bb.","postalcode":"1000","municipality_fr":"Bruxelles","territory_fr":"Louise","google_maps":"https:\/\/www.google.com\/maps\/search\/?api=1&query=50.81203%2C4.37232","google_street_view":"https:\/\/www.google.com\/maps\/@?api=1&map_action=pano&viewpoint=50.81203%2C4.37232","geo_point_2d":{"lon":4.37232,"lat":50.81203},"ifu_type":"Eau potable gratuite \/ Gratis drinkwater \/ Free drinking water"}},{"type":"Feature","geometry":{"coordinates":[4.38246,50.80167],"type":"Point"},"properties":{"id_opendata":"FTB_000147","category_fr":"borne","name_fr":"Borne \u00e0 eau Gen\u00eat ouest","status_fr":"actif","type_fr":"standard","access_type_fr":"accessible 24h\/24","street_art_fr":null,"dog_friendly_fr":"?","location_fr":"Av. des Gen\u00eats \/ Chemin du Haras","address_fr":"Avenue Franklin Roosevelt, 89A","address_details_fr":"Premi\u00e8re borne face \u00e0 l\u2019\u00e9tang et derri\u00e8re le Chalet Robinson.","postalcode":"1000","municipality_fr":"Bruxelles","territory_fr":"Louise","google_maps":"https:\/\/www.google.com\/maps\/search\/?api=1&query=50.80167%2C4.38246","google_street_view":"https:\/\/www.google.com\/maps\/@?api=1&map_action=pano&viewpoint=50.80167%2C4.38246","geo_point_2d":{"lon":4.38246,"lat":50.80167},"ifu_type":"Eau potable gratuite \/ Gratis drinkwater \/ Free drinking water"}},{"type":"Feature","geometry":{"coordinates":[4.36057,50.87713],"type":"Point"},"properties":{"id_opendata":"FTB_000154","category_fr":"borne","name_fr":"Borne \u00e0 eau Palais Outre-ponts","status_fr":"actif","type_fr":"standard","access_type_fr":"accessible 24h\/24","street_art_fr":"Borne Street Art","dog_friendly_fr":"?","location_fr":"Rue des Palais Outre-Ponts","address_fr":"Rue des Palais Outre-Ponts, 440","address_details_fr":"Sur la plaine de jeux, en face du n\u00b0 440.","postalcode":"1020","municipality_fr":"Bruxelles","territory_fr":"Laeken","google_maps":"https:\/\/www.google.com\/maps\/search\/?api=1&query=50.87713%2C4.36057","google_street_view":"https:\/\/www.google.com\/maps\/@?api=1&map_action=pano&viewpoint=50.87713%2C4.36057","geo_point_2d":{"lon":4.36057,"lat":50.87713},"ifu_type":"Eau potable gratuite \/ Gratis drinkwater \/ Free drinking water"}},{"type":"Feature","geometry":{"coordinates":[4.38348,50.89701],"type":"Point"},"properties":{"id_opendata":"FTB_000157","category_fr":"borne","name_fr":"Borne \u00e0 eau Craetbos","status_fr":"actif","type_fr":"standard","access_type_fr":"accessible 24h\/24","street_art_fr":null,"dog_friendly_fr":"?","location_fr":"Rue du Craetveld \/ R. du Bois Henri","address_fr":"Rue du Bois Henri, 10","address_details_fr":"A c\u00f4t\u00e9 de la plaine de jeu dans le fond du vallon.","postalcode":"1120","municipality_fr":"Bruxelles","territory_fr":"Neder-Over-Heembeek\/Mutsaard","google_maps":"https:\/\/www.google.com\/maps\/search\/?api=1&query=50.89701%2C4.38348","google_street_view":"https:\/\/www.google.com\/maps\/@?api=1&map_action=pano&viewpoint=50.89701%2C4.38348","geo_point_2d":{"lon":4.38348,"lat":50.89701},"ifu_type":"Eau potable gratuite \/ Gratis drinkwater \/ Free drinking water"}},{"type":"Feature","geometry":{"coordinates":[4.41921,50.89659],"type":"Point"},"properties":{"id_opendata":"FTB_000160","category_fr":"borne","name_fr":"Borne \u00e0 eau Haren","status_fr":"actif","type_fr":"standard","access_type_fr":"accessible 24h\/24","street_art_fr":null,"dog_friendly_fr":"?","location_fr":"Rue du Beemdgracht","address_fr":"Rue du Beemdgracht, 44","address_details_fr":"Parc de Haeren, en face du n\u00b040.","postalcode":"1130","municipality_fr":"Bruxelles","territory_fr":"Haren","google_maps":"https:\/\/www.google.com\/maps\/search\/?api=1&query=50.89659%2C4.41921","google_street_view":"https:\/\/www.google.com\/maps\/@?api=1&map_action=pano&viewpoint=50.89659%2C4.41921","geo_point_2d":{"lon":4.41921,"lat":50.89659},"ifu_type":"Eau potable gratuite \/ Gratis drinkwater \/ Free drinking water"}},{"type":"Feature","geometry":{"coordinates":[4.34199,50.85057],"type":"Point"},"properties":{"id_opendata":"FTB_000102","category_fr":"borne","name_fr":"Borne \u00e0 eau Grand Serment","status_fr":"actif","type_fr":"standard","access_type_fr":"accessible 24h\/24","street_art_fr":"Borne Street Art","dog_friendly_fr":"?","location_fr":"Rue du Grand Serment","address_fr":"Rue du Houblon, 26","address_details_fr":"En face du n\u00b04.","postalcode":"1000","municipality_fr":"Bruxelles","territory_fr":"Pentagone","google_maps":"https:\/\/www.google.com\/maps\/search\/?api=1&query=50.85057%2C4.34199","google_street_view":"https:\/\/www.google.com\/maps\/@?api=1&map_action=pano&viewpoint=50.85057%2C4.34199","geo_point_2d":{"lon":4.34199,"lat":50.85057},"ifu_type":"Eau potable gratuite \/ Gratis drinkwater \/ Free drinking water"}},{"type":"Feature","geometry":{"coordinates":[4.35306,50.85195],"type":"Point"},"properties":{"id_opendata":"FTB_000114","category_fr":"borne","name_fr":"Borne \u00e0 eau De Brouck\u00e8re nord","status_fr":"actif","type_fr":"standard","access_type_fr":"accessible 24h\/24","street_art_fr":null,"dog_friendly_fr":"?","location_fr":"Place de Brouck\u00e8re","address_fr":"Boulevard Emile Jacqmain, 2","address_details_fr":"Au coin avec la rue des Hirondelles, devant le n\u00b048 sur la place.","postalcode":"1000","municipality_fr":"Bruxelles","territory_fr":"Pentagone","google_maps":"https:\/\/www.google.com\/maps\/search\/?api=1&query=50.85195%2C4.35306","google_street_view":"https:\/\/www.google.com\/maps\/@?api=1&map_action=pano&viewpoint=50.85195%2C4.35306","geo_point_2d":{"lon":4.35306,"lat":50.85195},"ifu_type":"Eau potable gratuite \/ Gratis drinkwater \/ Free drinking water"}},{"type":"Feature","geometry":{"coordinates":[4.34817,50.85557],"type":"Point"},"properties":{"id_opendata":"FTB_000126","category_fr":"borne","name_fr":"Borne \u00e0 eau Quai au Foin nord","status_fr":"actif","type_fr":"standard","access_type_fr":"accessible 24h\/24","street_art_fr":null,"dog_friendly_fr":"?","location_fr":"Quai au Foin","address_fr":"Quai au Foin, 67","address_details_fr":"Derri\u00e8re le th\u00e9atre KVS, sur le terrain de basket, devant le n\u00b067.","postalcode":"1000","municipality_fr":"Bruxelles","territory_fr":"Pentagone","google_maps":"https:\/\/www.google.com\/maps\/search\/?api=1&query=50.85557%2C4.34817","google_street_view":"https:\/\/www.google.com\/maps\/@?api=1&map_action=pano&viewpoint=50.85557%2C4.34817","geo_point_2d":{"lon":4.34817,"lat":50.85557},"ifu_type":"Eau potable gratuite \/ Gratis drinkwater \/ Free drinking water"}},{"type":"Feature","geometry":{"coordinates":[4.38662,50.84714],"type":"Point"},"properties":{"id_opendata":"FTB_000134","category_fr":"borne","name_fr":"Borne \u00e0 eau Marguerite","status_fr":"actif","type_fr":"standard","access_type_fr":"accessible 24h\/24","street_art_fr":null,"dog_friendly_fr":"?","location_fr":"Square Marguerite","address_fr":"Square Marguerite, 13","address_details_fr":"En face du n\u00b013.","postalcode":"1000","municipality_fr":"Bruxelles","territory_fr":"Nord-Est","google_maps":"https:\/\/www.google.com\/maps\/search\/?api=1&query=50.84714%2C4.38662","google_street_view":"https:\/\/www.google.com\/maps\/@?api=1&map_action=pano&viewpoint=50.84714%2C4.38662","geo_point_2d":{"lon":4.38662,"lat":50.84714},"ifu_type":"Eau potable gratuite \/ Gratis drinkwater \/ Free drinking water"}},{"type":"Feature","geometry":{"coordinates":[4.34744,50.83732],"type":"Point"},"properties":{"id_opendata":"FTB_000137","category_fr":"borne","name_fr":"Borne \u00e0 eau des Escargots","status_fr":"actif","type_fr":"standard","access_type_fr":"accessible selon horaires","street_art_fr":null,"dog_friendly_fr":"?","location_fr":"Rue des Renards \/ Pl.d.J. Escargots","address_fr":"Rue des Renards, 12","address_details_fr":"Entr\u00e9e rue des Capucins n\u00b059, local service jeunesse, aire de jeux, \u00e0 droite.","postalcode":"1000","municipality_fr":"Bruxelles","territory_fr":"Pentagone","google_maps":"https:\/\/www.google.com\/maps\/search\/?api=1&query=50.83732%2C4.34744","google_street_view":"https:\/\/www.google.com\/maps\/@?api=1&map_action=pano&viewpoint=50.83732%2C4.34744","geo_point_2d":{"lon":4.34744,"lat":50.83732},"ifu_type":"Eau potable gratuite \/ Gratis drinkwater \/ Free drinking water"}},{"type":"Feature","geometry":{"coordinates":[4.34834,50.84011],"type":"Point"},"properties":{"id_opendata":"FTB_000139","category_fr":"borne","name_fr":"Borne \u00e0 eau Akarova","status_fr":"actif","type_fr":"standard","access_type_fr":"accessible 24h\/24","street_art_fr":null,"dog_friendly_fr":"?","location_fr":"Rue des Visitandines \/ Pl. Akarova","address_fr":"Rue des Visitandines, 3","address_details_fr":"En face de la rue du Jardin Rompu.","postalcode":"1000","municipality_fr":"Bruxelles","territory_fr":"Pentagone","google_maps":"https:\/\/www.google.com\/maps\/search\/?api=1&query=50.84011%2C4.34834","google_street_view":"https:\/\/www.google.com\/maps\/@?api=1&map_action=pano&viewpoint=50.84011%2C4.34834","geo_point_2d":{"lon":4.34834,"lat":50.84011},"ifu_type":"Eau potable gratuite \/ Gratis drinkwater \/ Free drinking water"}},{"type":"Feature","geometry":{"coordinates":[4.37489,50.80858],"type":"Point"},"properties":{"id_opendata":"FTB_000144","category_fr":"borne","name_fr":"Borne \u00e0 eau Laiterie","status_fr":"actif","type_fr":"standard","access_type_fr":"accessible 24h\/24","street_art_fr":null,"dog_friendly_fr":"?","location_fr":"Av. de la Laiterie","address_fr":"Avenue de Flore, 3","address_details_fr":"Dans la plaine de jeux au croisement av de la Laiterie et av de Diane.","postalcode":"1000","municipality_fr":"Bruxelles","territory_fr":"Louise","google_maps":"https:\/\/www.google.com\/maps\/search\/?api=1&query=50.80858%2C4.37489","google_street_view":"https:\/\/www.google.com\/maps\/@?api=1&map_action=pano&viewpoint=50.80858%2C4.37489","geo_point_2d":{"lon":4.37489,"lat":50.80858},"ifu_type":"Eau potable gratuite \/ Gratis drinkwater \/ Free drinking water"}},{"type":"Feature","geometry":{"coordinates":[4.341357,50.89055],"type":"Point"},"properties":{"id_opendata":"FTB_000150","category_fr":"borne","name_fr":"Borne \u00e0 eau Marsupilami","status_fr":"actif","type_fr":"standard","access_type_fr":"accessible 24h\/24","street_art_fr":"Borne Street Art","dog_friendly_fr":"?","location_fr":"Rue Reper-Vreven \/ Pl. Marsupilami","address_fr":"Rue Reper-Vreven, 39","address_details_fr":"Sur la plaine de jeux, en face du n\u00b0 39.","postalcode":"1020","municipality_fr":"Bruxelles","territory_fr":"Laeken","google_maps":"https:\/\/www.google.com\/maps\/search\/?api=1&query=50.89055%2C4.341357","google_street_view":"https:\/\/www.google.com\/maps\/@?api=1&map_action=pano&viewpoint=50.89055%2C4.341357","geo_point_2d":{"lon":4.341357,"lat":50.89055},"ifu_type":"Eau potable gratuite \/ Gratis drinkwater \/ Free drinking water"}},{"type":"Feature","geometry":{"coordinates":[4.37538,50.89711],"type":"Point"},"properties":{"id_opendata":"FTB_000158","category_fr":"borne","name_fr":"Borne \u00e0 eau Laskouster","status_fr":"actif","type_fr":"standard","access_type_fr":"accessible 24h\/24","street_art_fr":null,"dog_friendly_fr":"?","location_fr":"Av. de Versailles \/ Laskouster","address_fr":"Avenue de Versailles, 142","address_details_fr":"A la hauteur de l\u2019Av de Versailles 144-146 et Rue Laskouter.","postalcode":"1120","municipality_fr":"Bruxelles","territory_fr":"Neder-Over-Heembeek\/Mutsaard","google_maps":"https:\/\/www.google.com\/maps\/search\/?api=1&query=50.89711%2C4.37538","google_street_view":"https:\/\/www.google.com\/maps\/@?api=1&map_action=pano&viewpoint=50.89711%2C4.37538","geo_point_2d":{"lon":4.37538,"lat":50.89711},"ifu_type":"Eau potable gratuite \/ Gratis drinkwater \/ Free drinking water"}},{"type":"Feature","geometry":{"coordinates":[4.38266,50.90019],"type":"Point"},"properties":{"id_opendata":"FTB_000159","category_fr":"borne","name_fr":"Borne \u00e0 eau Val Maria","status_fr":"actif","type_fr":"standard","access_type_fr":"accessible 24h\/24","street_art_fr":null,"dog_friendly_fr":"?","location_fr":"Mari\u00ebnsteen","address_fr":"Clos des Trigonelles, 5","address_details_fr":"A c\u00f4t\u00e9 de la plaine de jeu, en lisi\u00e8re du bois.","postalcode":"1120","municipality_fr":"Bruxelles","territory_fr":"Neder-Over-Heembeek\/Mutsaard","google_maps":"https:\/\/www.google.com\/maps\/search\/?api=1&query=50.90019%2C4.38266","google_street_view":"https:\/\/www.google.com\/maps\/@?api=1&map_action=pano&viewpoint=50.90019%2C4.38266","geo_point_2d":{"lon":4.38266,"lat":50.90019},"ifu_type":"Eau potable gratuite \/ Gratis drinkwater \/ Free drinking water"}},{"type":"Feature","geometry":{"coordinates":[4.34887,50.84644],"type":"Point"},"properties":{"id_opendata":"FTB_000104","category_fr":"borne","name_fr":"Borne \u00e0 eau des Cinq Coins","status_fr":"actif","type_fr":"standard","access_type_fr":"accessible 24h\/24","street_art_fr":null,"dog_friendly_fr":"?","location_fr":"Rue des Teinturiers \/ Plattesteen","address_fr":"Rue des Teinturiers, 18","address_details_fr":"Au coin avec la rue des Teinturiers et rue Platesteen.","postalcode":"1000","municipality_fr":"Bruxelles","territory_fr":"Pentagone","google_maps":"https:\/\/www.google.com\/maps\/search\/?api=1&query=50.84644%2C4.34887","google_street_view":"https:\/\/www.google.com\/maps\/@?api=1&map_action=pano&viewpoint=50.84644%2C4.34887","geo_point_2d":{"lon":4.34887,"lat":50.84644},"ifu_type":"Eau potable gratuite \/ Gratis drinkwater \/ Free drinking water"}},{"type":"Feature","geometry":{"coordinates":[4.34654,50.84524],"type":"Point"},"properties":{"id_opendata":"FTB_000107","category_fr":"borne","name_fr":"Borne \u00e0 eau Fontainas est","status_fr":"actif","type_fr":"standard","access_type_fr":"accessible 24h\/24","street_art_fr":null,"dog_friendly_fr":"?","location_fr":"Place Fontainas","address_fr":"Boulevard Anspach, 189","address_details_fr":"En face du n\u00b011, du cot\u00e9 Rue aux Charbons.","postalcode":"1000","municipality_fr":"Bruxelles","territory_fr":"Pentagone","google_maps":"https:\/\/www.google.com\/maps\/search\/?api=1&query=50.84524%2C4.34654","google_street_view":"https:\/\/www.google.com\/maps\/@?api=1&map_action=pano&viewpoint=50.84524%2C4.34654","geo_point_2d":{"lon":4.34654,"lat":50.84524},"ifu_type":"Eau potable gratuite \/ Gratis drinkwater \/ Free drinking water"}},{"type":"Feature","geometry":{"coordinates":[4.35403,50.85239],"type":"Point"},"properties":{"id_opendata":"FTB_000113","category_fr":"borne","name_fr":"Borne \u00e0 eau Adolphe Max","status_fr":"actif","type_fr":"standard","access_type_fr":"accessible 24h\/24","street_art_fr":null,"dog_friendly_fr":"?","location_fr":"Boulevard Adolphe Max","address_fr":"Boulevard Adolphe Max, 22","address_details_fr":"En face du n\u00b012.","postalcode":"1000","municipality_fr":"Bruxelles","territory_fr":"Pentagone","google_maps":"https:\/\/www.google.com\/maps\/search\/?api=1&query=50.85239%2C4.35403","google_street_view":"https:\/\/www.google.com\/maps\/@?api=1&map_action=pano&viewpoint=50.85239%2C4.35403","geo_point_2d":{"lon":4.35403,"lat":50.85239},"ifu_type":"Eau potable gratuite \/ Gratis drinkwater \/ Free drinking water"}},{"type":"Feature","geometry":{"coordinates":[4.35607,50.85311],"type":"Point"},"properties":{"id_opendata":"FTB_000117","category_fr":"borne","name_fr":"Borne \u00e0 eau Pont Neuf","status_fr":"actif","type_fr":"standard","access_type_fr":"accessible 24h\/24","street_art_fr":null,"dog_friendly_fr":"?","location_fr":"Rue du Pont Neuf","address_fr":"Rue du Pont Neuf, 68","address_details_fr":"A la hauteur de l\u2019Eglise du Finist\u00e8re et de l\u2019Inno.","postalcode":"1000","municipality_fr":"Bruxelles","territory_fr":"Pentagone","google_maps":"https:\/\/www.google.com\/maps\/search\/?api=1&query=50.85311%2C4.35607","google_street_view":"https:\/\/www.google.com\/maps\/@?api=1&map_action=pano&viewpoint=50.85311%2C4.35607","geo_point_2d":{"lon":4.35607,"lat":50.85311},"ifu_type":"Eau potable gratuite \/ Gratis drinkwater \/ Free drinking water"}},{"type":"Feature","geometry":{"coordinates":[4.34159,50.88412],"type":"Point"},"properties":{"id_opendata":"FTB_000149","category_fr":"borne","name_fr":"Borne \u00e0 eau Prince L\u00e9opold","status_fr":"actif","type_fr":"standard","access_type_fr":"accessible 24h\/24","street_art_fr":"Borne Street Art","dog_friendly_fr":"?","location_fr":"Square Prince L\u00e9opold","address_fr":"Square Prince L\u00e9opold, 59","address_details_fr":"En face du n\u00b0 49, pr\u00e8s Rue Strauwen, au bord de l\u2019all\u00e9e autour du parc.","postalcode":"1020","municipality_fr":"Bruxelles","territory_fr":"Laeken","google_maps":"https:\/\/www.google.com\/maps\/search\/?api=1&query=50.88412%2C4.34159","google_street_view":"https:\/\/www.google.com\/maps\/@?api=1&map_action=pano&viewpoint=50.88412%2C4.34159","geo_point_2d":{"lon":4.34159,"lat":50.88412},"ifu_type":"Eau potable gratuite \/ Gratis drinkwater \/ Free drinking water"}},{"type":"Feature","geometry":{"coordinates":[4.34386,50.88237],"type":"Point"},"properties":{"id_opendata":"FTB_000151","category_fr":"borne","name_fr":"Borne \u00e0 eau Oasis","status_fr":"actif","type_fr":"standard","access_type_fr":"accessible selon horaires","street_art_fr":null,"dog_friendly_fr":"?","location_fr":"Rue Alfred Stevens \/ Pl.d.J.Oasis","address_fr":"Rue de Ter Plast, 16","address_details_fr":"Dans la plaine de jeux, via la rue Alfred Stevens n\u00b033 ou rue du Siphon n\u00b011.","postalcode":"1020","municipality_fr":"Bruxelles","territory_fr":"Laeken","google_maps":"https:\/\/www.google.com\/maps\/search\/?api=1&query=50.88237%2C4.34386","google_street_view":"https:\/\/www.google.com\/maps\/@?api=1&map_action=pano&viewpoint=50.88237%2C4.34386","geo_point_2d":{"lon":4.34386,"lat":50.88237},"ifu_type":"Eau potable gratuite \/ Gratis drinkwater \/ Free drinking water"}},{"type":"Feature","geometry":{"coordinates":[4.33178,50.89967],"type":"Point"},"properties":{"id_opendata":"FTB_000153","category_fr":"borne","name_fr":"Borne \u00e0 eau Verregat","status_fr":"actif","type_fr":"standard","access_type_fr":"accessible 24h\/24","street_art_fr":"Borne Street Art","dog_friendly_fr":"?","location_fr":"Rue des Gen\u00e9vriers","address_fr":"Rue des Gen\u00e9vriers, 42","address_details_fr":"Parc du Verregat, derri\u00e8re le chalet (c\u00f4t\u00e9 avenue des Magnolias).","postalcode":"1020","municipality_fr":"Bruxelles","territory_fr":"Laeken","google_maps":"https:\/\/www.google.com\/maps\/search\/?api=1&query=50.89967%2C4.33178","google_street_view":"https:\/\/www.google.com\/maps\/@?api=1&map_action=pano&viewpoint=50.89967%2C4.33178","geo_point_2d":{"lon":4.33178,"lat":50.89967},"ifu_type":"Eau potable gratuite \/ Gratis drinkwater \/ Free drinking water"}},{"type":"Feature","geometry":{"coordinates":[4.3754,50.89588],"type":"Point"},"properties":{"id_opendata":"FTB_000156","category_fr":"borne","name_fr":"Borne \u00e0 eau Beyseghem","status_fr":"actif","type_fr":"standard","access_type_fr":"accessible 24h\/24","street_art_fr":null,"dog_friendly_fr":"?","location_fr":"Av. de Versailles \/ R. de Beyseghem","address_fr":"Rue de Beyseghem, 148","address_details_fr":"Sur la plaine de jeux, pr\u00e8s des balan\u00e7oires.","postalcode":"1120","municipality_fr":"Bruxelles","territory_fr":"Neder-Over-Heembeek\/Mutsaard","google_maps":"https:\/\/www.google.com\/maps\/search\/?api=1&query=50.89588%2C4.3754","google_street_view":"https:\/\/www.google.com\/maps\/@?api=1&map_action=pano&viewpoint=50.89588%2C4.3754","geo_point_2d":{"lon":4.3754,"lat":50.89588},"ifu_type":"Eau potable gratuite \/ Gratis drinkwater \/ Free drinking water"}},{"type":"Feature","geometry":{"coordinates":[4.381437,50.84964],"type":"Point"},"properties":{"id_opendata":"FTB_000161","category_fr":"borne","name_fr":"Borne \u00e0 eau Clovis","status_fr":"actif","type_fr":"standard","access_type_fr":"accessible 24h\/24","street_art_fr":null,"dog_friendly_fr":"?","location_fr":"Boulevard Clovis","address_fr":"Boulevard Clovis, 53","address_details_fr":"A la hauteur du boulevard Clovis n\u00b053.","postalcode":"1000","municipality_fr":"Bruxelles","territory_fr":"Nord-Est","google_maps":"https:\/\/www.google.com\/maps\/search\/?api=1&query=50.84964%2C4.381437","google_street_view":"https:\/\/www.google.com\/maps\/@?api=1&map_action=pano&viewpoint=50.84964%2C4.381437","geo_point_2d":{"lon":4.381437,"lat":50.84964},"ifu_type":"Eau potable gratuite \/ Gratis drinkwater \/ Free drinking water"}},{"type":"Feature","geometry":{"coordinates":[4.34621,50.84541],"type":"Point"},"properties":{"id_opendata":"FTB_000106","category_fr":"borne","name_fr":"Borne \u00e0 eau Fontainas nord","status_fr":"actif","type_fr":"standard","access_type_fr":"accessible 24h\/24","street_art_fr":null,"dog_friendly_fr":"?","location_fr":"Place Fontainas","address_fr":"Boulevard Anspach, 189","address_details_fr":"En face du n\u00b01, du cot\u00e9 du parc.","postalcode":"1000","municipality_fr":"Bruxelles","territory_fr":"Pentagone","google_maps":"https:\/\/www.google.com\/maps\/search\/?api=1&query=50.84541%2C4.34621","google_street_view":"https:\/\/www.google.com\/maps\/@?api=1&map_action=pano&viewpoint=50.84541%2C4.34621","geo_point_2d":{"lon":4.34621,"lat":50.84541},"ifu_type":"Eau potable gratuite \/ Gratis drinkwater \/ Free drinking water"}},{"type":"Feature","geometry":{"coordinates":[4.34805,50.84673],"type":"Point"},"properties":{"id_opendata":"FTB_000109","category_fr":"borne","name_fr":"Borne \u00e0 eau Teinturiers","status_fr":"actif","type_fr":"standard","access_type_fr":"accessible 24h\/24","street_art_fr":null,"dog_friendly_fr":"?","location_fr":"Bd. Anspach\/ Rue des Teinturiers","address_fr":"Boulevard Anspach, 136","address_details_fr":"Au carrefour avec la rue des Teinturiers.","postalcode":"1000","municipality_fr":"Bruxelles","territory_fr":"Pentagone","google_maps":"https:\/\/www.google.com\/maps\/search\/?api=1&query=50.84673%2C4.34805","google_street_view":"https:\/\/www.google.com\/maps\/@?api=1&map_action=pano&viewpoint=50.84673%2C4.34805","geo_point_2d":{"lon":4.34805,"lat":50.84673},"ifu_type":"Eau potable gratuite \/ Gratis drinkwater \/ Free drinking water"}},{"type":"Feature","geometry":{"coordinates":[4.3484,50.84724],"type":"Point"},"properties":{"id_opendata":"FTB_000110","category_fr":"borne","name_fr":"Borne \u00e0 eau Borgval","status_fr":"actif","type_fr":"standard","access_type_fr":"accessible 24h\/24","street_art_fr":null,"dog_friendly_fr":"?","location_fr":"Bd. Anspach \/ Borgval","address_fr":"Boulevard Anspach, 99","address_details_fr":"Au carrefour avec la rue Borgval.","postalcode":"1000","municipality_fr":"Bruxelles","territory_fr":"Pentagone","google_maps":"https:\/\/www.google.com\/maps\/search\/?api=1&query=50.84724%2C4.3484","google_street_view":"https:\/\/www.google.com\/maps\/@?api=1&map_action=pano&viewpoint=50.84724%2C4.3484","geo_point_2d":{"lon":4.3484,"lat":50.84724},"ifu_type":"Eau potable gratuite \/ Gratis drinkwater \/ Free drinking water"}},{"type":"Feature","geometry":{"coordinates":[4.35305,50.85194],"type":"Point"},"properties":{"id_opendata":"FTB_000115","category_fr":"borne","name_fr":"Borne \u00e0 eau De Brouck\u00e8re centre","status_fr":"actif","type_fr":"standard","access_type_fr":"accessible 24h\/24","street_art_fr":null,"dog_friendly_fr":"?","location_fr":"Place de Brouck\u00e8re","address_fr":"Boulevard Emile Jacqmain, 2","address_details_fr":"Au coin avec la rue des Hirondelles, devant le n\u00b048 sur la place.","postalcode":"1000","municipality_fr":"Bruxelles","territory_fr":"Pentagone","google_maps":"https:\/\/www.google.com\/maps\/search\/?api=1&query=50.85194%2C4.35305","google_street_view":"https:\/\/www.google.com\/maps\/@?api=1&map_action=pano&viewpoint=50.85194%2C4.35305","geo_point_2d":{"lon":4.35305,"lat":50.85194},"ifu_type":"Eau potable gratuite \/ Gratis drinkwater \/ Free drinking water"}},{"type":"Feature","geometry":{"coordinates":[4.34735,50.85059],"type":"Point"},"properties":{"id_opendata":"FTB_000121","category_fr":"borne","name_fr":"Borne \u00e0 eau Sainte-Catherine ouest","status_fr":"actif","type_fr":"standard","access_type_fr":"accessible 24h\/24","street_art_fr":"Borne Street Art","dog_friendly_fr":"?","location_fr":"Place Sainte-Catherine","address_fr":"Place Sainte-Catherine, 1","address_details_fr":"Devant l\u2019\u00e9glise, \u00e0 l'angle de la rue de Flandre.","postalcode":"1000","municipality_fr":"Bruxelles","territory_fr":"Pentagone","google_maps":"https:\/\/www.google.com\/maps\/search\/?api=1&query=50.85059%2C4.34735","google_street_view":"https:\/\/www.google.com\/maps\/@?api=1&map_action=pano&viewpoint=50.85059%2C4.34735","geo_point_2d":{"lon":4.34735,"lat":50.85059},"ifu_type":"Eau potable gratuite \/ Gratis drinkwater \/ Free drinking water"}},{"type":"Feature","geometry":{"coordinates":[4.34735,50.85058],"type":"Point"},"properties":{"id_opendata":"FTB_000122","category_fr":"borne","name_fr":"Borne \u00e0 eau Sainte-Catherine est","status_fr":"actif","type_fr":"standard","access_type_fr":"accessible 24h\/24","street_art_fr":"Borne Street Art","dog_friendly_fr":"?","location_fr":"Place Sainte-Catherine","address_fr":"Place Sainte-Catherine, 1","address_details_fr":"Devant l\u2019\u00e9glise, \u00e0 l'angle de la rue de Flandre.","postalcode":"1000","municipality_fr":"Bruxelles","territory_fr":"Pentagone","google_maps":"https:\/\/www.google.com\/maps\/search\/?api=1&query=50.85058%2C4.34735","google_street_view":"https:\/\/www.google.com\/maps\/@?api=1&map_action=pano&viewpoint=50.85058%2C4.34735","geo_point_2d":{"lon":4.34735,"lat":50.85058},"ifu_type":"Eau potable gratuite \/ Gratis drinkwater \/ Free drinking water"}},{"type":"Feature","geometry":{"coordinates":[4.34817,50.85556],"type":"Point"},"properties":{"id_opendata":"FTB_000127","category_fr":"borne","name_fr":"Borne \u00e0 eau Quai au foin sud","status_fr":"actif","type_fr":"standard","access_type_fr":"accessible 24h\/24","street_art_fr":null,"dog_friendly_fr":"?","location_fr":"Quai au Foin","address_fr":"Quai au Foin, 67","address_details_fr":"Derri\u00e8re le th\u00e9atre KVS, sur le terrain de basket, devant le n\u00b067.","postalcode":"1000","municipality_fr":"Bruxelles","territory_fr":"Pentagone","google_maps":"https:\/\/www.google.com\/maps\/search\/?api=1&query=50.85556%2C4.34817","google_street_view":"https:\/\/www.google.com\/maps\/@?api=1&map_action=pano&viewpoint=50.85556%2C4.34817","geo_point_2d":{"lon":4.34817,"lat":50.85556},"ifu_type":"Eau potable gratuite \/ Gratis drinkwater \/ Free drinking water"}},{"type":"Feature","geometry":{"coordinates":[4.3478,50.84072],"type":"Point"},"properties":{"id_opendata":"FTB_000138","category_fr":"borne","name_fr":"Borne \u00e0 eau Brigitinnes","status_fr":"actif","type_fr":"standard","access_type_fr":"accessible 24h\/24","street_art_fr":null,"dog_friendly_fr":"?","location_fr":"Rue d. Brigittines \/ Parc d. Brgtn.","address_fr":"Rue des Brigittines, 10","address_details_fr":"A la hauteur de La plaine de jeux et la gare Bruxelles-Chapelle.","postalcode":"1000","municipality_fr":"Bruxelles","territory_fr":"Pentagone","google_maps":"https:\/\/www.google.com\/maps\/search\/?api=1&query=50.84072%2C4.3478","google_street_view":"https:\/\/www.google.com\/maps\/@?api=1&map_action=pano&viewpoint=50.84072%2C4.3478","geo_point_2d":{"lon":4.3478,"lat":50.84072},"ifu_type":"Eau potable gratuite \/ Gratis drinkwater \/ Free drinking water"}},{"type":"Feature","geometry":{"coordinates":[4.3841,50.80157],"type":"Point"},"properties":{"id_opendata":"FTB_000148","category_fr":"borne","name_fr":"Borne \u00e0 eau Gen\u00eat est","status_fr":"actif","type_fr":"standard","access_type_fr":"accessible 24h\/24","street_art_fr":null,"dog_friendly_fr":"?","location_fr":"Av. des Gen\u00eats \/ Chemin d. An\u00e9mones","address_fr":"Avenue Franklin Roosevelt, 89A","address_details_fr":"Deuxi\u00e8me borne face \u00e0 l\u2019\u00e9tang et derri\u00e8re le Chalet Robinson.","postalcode":"1000","municipality_fr":"Bruxelles","territory_fr":"Louise","google_maps":"https:\/\/www.google.com\/maps\/search\/?api=1&query=50.80157%2C4.3841","google_street_view":"https:\/\/www.google.com\/maps\/@?api=1&map_action=pano&viewpoint=50.80157%2C4.3841","geo_point_2d":{"lon":4.3841,"lat":50.80157},"ifu_type":"Eau potable gratuite \/ Gratis drinkwater \/ Free drinking water"}}]}