{"type":"FeatureCollection","features":[{"type":"Feature","geometry":{"coordinates":[4.3460007468,50.8470719162],"type":"Point"},"properties":{"objectid":"1","type_en":"URINAL","status":"Bestaand \/ Existant","location":null,"address_fr":"38, Rue Saint-Christophe","postalcode":"1000","municipality_fr":"Bruxelles","territory_fr":"Pentagone","territory":"Pentagone \/ Vijfhoek","pricing_en":null,"pmr_en":null,"category_en":null,"openinghours":null,"management_en":null,"google_maps":"https:\/\/www.google.com\/maps\/search\/?api=1&query=50.847071916154285%2C4.346000751031795","google_street_view":"https:\/\/www.google.com\/maps\/@?api=1&map_action=pano&viewpoint=50.847071916154285%2C4.346000751031795","geo_point_2d":{"lon":4.3460007468,"lat":50.8470719162}}},{"type":"Feature","geometry":{"coordinates":[4.3323155104,50.8936184795],"type":"Point"},"properties":{"objectid":"14","type_en":"URINAL","status":"Bestaand \/ Existant","location":null,"address_fr":"22, Avenue Jean Palfyn","postalcode":"1020","municipality_fr":"Bruxelles","territory_fr":"Laeken","territory":"Laeken \/ Laken","pricing_en":null,"pmr_en":null,"category_en":null,"openinghours":null,"management_en":null,"google_maps":"https:\/\/www.google.com\/maps\/search\/?api=1&query=50.893618476849014%2C4.332315510397148","google_street_view":"https:\/\/www.google.com\/maps\/@?api=1&map_action=pano&viewpoint=50.893618476849014%2C4.332315510397148","geo_point_2d":{"lon":4.3323155104,"lat":50.8936184795}}},{"type":"Feature","geometry":{"coordinates":[4.3503344709,50.8524665614],"type":"Point"},"properties":{"objectid":"31","type_en":"URINAL","status":"Bestaand \/ Existant","location":null,"address_fr":"1, Place du B\u00e9guinage","postalcode":"1000","municipality_fr":"Bruxelles","territory_fr":"Pentagone","territory":"Pentagone \/ Vijfhoek","pricing_en":null,"pmr_en":null,"category_en":null,"openinghours":null,"management_en":null,"google_maps":"https:\/\/www.google.com\/maps\/search\/?api=1&query=50.852466563235076%2C4.350334473725094","google_street_view":"https:\/\/www.google.com\/maps\/@?api=1&map_action=pano&viewpoint=50.852466563235076%2C4.350334473725094","geo_point_2d":{"lon":4.3503344709,"lat":50.8524665614}}},{"type":"Feature","geometry":{"coordinates":[4.347174758,50.8764353589],"type":"Point"},"properties":{"objectid":"63","type_en":"URINAL","status":"Bestaand \/ Existant","location":null,"address_fr":"21, Rue Tielemans","postalcode":"1020","municipality_fr":"Bruxelles","territory_fr":"Laeken","territory":"Laeken \/ Laken","pricing_en":null,"pmr_en":null,"category_en":null,"openinghours":null,"management_en":null,"google_maps":"https:\/\/www.google.com\/maps\/search\/?api=1&query=50.87643535889069%2C4.3471747623064765","google_street_view":"https:\/\/www.google.com\/maps\/@?api=1&map_action=pano&viewpoint=50.87643535889069%2C4.3471747623064765","geo_point_2d":{"lon":4.347174758,"lat":50.8764353589}}},{"type":"Feature","geometry":{"coordinates":[4.3496158811,50.8473085258],"type":"Point"},"properties":{"objectid":"67","type_en":"URINAL","status":"Bestaand \/ Existant","location":null,"address_fr":"23, Rue des Pierres","postalcode":"1000","municipality_fr":"Bruxelles","territory_fr":"Pentagone","territory":"Pentagone \/ Vijfhoek","pricing_en":null,"pmr_en":null,"category_en":null,"openinghours":null,"management_en":null,"google_maps":"https:\/\/www.google.com\/maps\/search\/?api=1&query=50.84730852494432%2C4.349615881086999","google_street_view":"https:\/\/www.google.com\/maps\/@?api=1&map_action=pano&viewpoint=50.84730852494432%2C4.349615881086999","geo_point_2d":{"lon":4.3496158811,"lat":50.8473085258}}},{"type":"Feature","geometry":{"coordinates":[4.3512132067,50.8432699036],"type":"Point"},"properties":{"objectid":"72","type_en":"URINAL","status":"Bestaand \/ Existant","location":null,"address_fr":"41, Rue de Villers","postalcode":"1000","municipality_fr":"Bruxelles","territory_fr":"Pentagone","territory":"Pentagone \/ Vijfhoek","pricing_en":null,"pmr_en":null,"category_en":null,"openinghours":null,"management_en":null,"google_maps":"https:\/\/www.google.com\/maps\/search\/?api=1&query=50.843269900911714%2C4.351213201013376","google_street_view":"https:\/\/www.google.com\/maps\/@?api=1&map_action=pano&viewpoint=50.843269900911714%2C4.351213201013376","geo_point_2d":{"lon":4.3512132067,"lat":50.8432699036}}},{"type":"Feature","geometry":{"coordinates":[4.3364147517,50.8907327357],"type":"Point"},"properties":{"objectid":"9","type_en":"URINAL","status":"Bestaand \/ Existant","location":null,"address_fr":"194, Avenue Houba de Strooper","postalcode":"1020","municipality_fr":"Bruxelles","territory_fr":"Laeken","territory":"Laeken \/ Laken","pricing_en":null,"pmr_en":null,"category_en":null,"openinghours":null,"management_en":null,"google_maps":"https:\/\/www.google.com\/maps\/search\/?api=1&query=50.890732735715794%2C4.33641474740759","google_street_view":"https:\/\/www.google.com\/maps\/@?api=1&map_action=pano&viewpoint=50.890732735715794%2C4.33641474740759","geo_point_2d":{"lon":4.3364147517,"lat":50.8907327357}}},{"type":"Feature","geometry":{"coordinates":[4.3452154546,50.8915774673],"type":"Point"},"properties":{"objectid":"13","type_en":"URINAL","status":"Bestaand \/ Existant","location":null,"address_fr":"38, Place Saint-Lambert","postalcode":"1020","municipality_fr":"Bruxelles","territory_fr":"Laeken","territory":"Laeken \/ Laken","pricing_en":null,"pmr_en":null,"category_en":null,"openinghours":null,"management_en":null,"google_maps":"https:\/\/www.google.com\/maps\/search\/?api=1&query=50.89157746463738%2C4.345215450359914","google_street_view":"https:\/\/www.google.com\/maps\/@?api=1&map_action=pano&viewpoint=50.89157746463738%2C4.345215450359914","geo_point_2d":{"lon":4.3452154546,"lat":50.8915774673}}},{"type":"Feature","geometry":{"coordinates":[4.3443047589,50.8907818862],"type":"Point"},"properties":{"objectid":"66","type_en":"URINAL","status":"Bestaand \/ Existant","location":null,"address_fr":"38, Place Saint-Lambert","postalcode":"1020","municipality_fr":"Bruxelles","territory_fr":"Laeken","territory":"Laeken \/ Laken","pricing_en":null,"pmr_en":null,"category_en":null,"openinghours":null,"management_en":null,"google_maps":"https:\/\/www.google.com\/maps\/search\/?api=1&query=50.890781883474446%2C4.344304763173396","google_street_view":"https:\/\/www.google.com\/maps\/@?api=1&map_action=pano&viewpoint=50.890781883474446%2C4.344304763173396","geo_point_2d":{"lon":4.3443047589,"lat":50.8907818862}}},{"type":"Feature","geometry":{"coordinates":[4.3500804918,50.8415011782],"type":"Point"},"properties":{"objectid":"641","type_en":"URINAL","status":"Bestaand \/ Existant","location":null,"address_fr":"4, Place de la Chapelle","postalcode":"1000","municipality_fr":"Bruxelles","territory_fr":"Pentagone","territory":"Pentagone \/ Vijfhoek","pricing_en":null,"pmr_en":null,"category_en":null,"openinghours":null,"management_en":null,"google_maps":"https:\/\/www.google.com\/maps\/search\/?api=1&query=50.84150117815104%2C4.350080484724099","google_street_view":"https:\/\/www.google.com\/maps\/@?api=1&map_action=pano&viewpoint=50.84150117815104%2C4.350080484724099","geo_point_2d":{"lon":4.3500804918,"lat":50.8415011782}}},{"type":"Feature","geometry":{"coordinates":[4.348104925,50.8508371],"type":"Point"},"properties":{"objectid":"29","type_en":"URINAL","status":"Bestaand \/ Existant","location":null,"address_fr":"12, Place Sainte-Catherine","postalcode":"1000","municipality_fr":"Bruxelles","territory_fr":"Pentagone","territory":"Pentagone \/ Vijfhoek","pricing_en":null,"pmr_en":null,"category_en":null,"openinghours":null,"management_en":null,"google_maps":"https:\/\/www.google.com\/maps\/search\/?api=1&query=50.85083710000128%2C4.348104929222157","google_street_view":"https:\/\/www.google.com\/maps\/@?api=1&map_action=pano&viewpoint=50.85083710000128%2C4.348104929222157","geo_point_2d":{"lon":4.348104925,"lat":50.8508371}}},{"type":"Feature","geometry":{"coordinates":[4.3477579649,50.8412756261],"type":"Point"},"properties":{"objectid":"53","type_en":"URINAL","status":"Bestaand \/ Existant","location":null,"address_fr":"17, Rue des Ursulines","postalcode":"1000","municipality_fr":"Bruxelles","territory_fr":"Pentagone","territory":"Pentagone \/ Vijfhoek","pricing_en":null,"pmr_en":null,"category_en":null,"openinghours":null,"management_en":null,"google_maps":"https:\/\/www.google.com\/maps\/search\/?api=1&query=50.84127562883205%2C4.34775796918836","google_street_view":"https:\/\/www.google.com\/maps\/@?api=1&map_action=pano&viewpoint=50.84127562883205%2C4.34775796918836","geo_point_2d":{"lon":4.3477579649,"lat":50.8412756261}}},{"type":"Feature","geometry":{"coordinates":[4.3445699725,50.8511318963],"type":"Point"},"properties":{"objectid":"16","type_en":"URINAL","status":"Te vervangen \/ A remplacer","location":null,"address_fr":"8, Place du Nouveau March\u00e9 aux Grains","postalcode":"1000","municipality_fr":"Bruxelles","territory_fr":"Pentagone","territory":"Pentagone \/ Vijfhoek","pricing_en":null,"pmr_en":null,"category_en":null,"openinghours":null,"management_en":null,"google_maps":"https:\/\/www.google.com\/maps\/search\/?api=1&query=50.8511318935659%2C4.344569971037791","google_street_view":"https:\/\/www.google.com\/maps\/@?api=1&map_action=pano&viewpoint=50.8511318935659%2C4.344569971037791","geo_point_2d":{"lon":4.3445699725,"lat":50.8511318963}}},{"type":"Feature","geometry":{"coordinates":[4.3605364283,50.8754418481],"type":"Point"},"properties":{"objectid":"21","type_en":"URINAL","status":"Bestaand \/ Existant","location":null,"address_fr":"387, Rue des Palais Outre-Ponts","postalcode":"1020","municipality_fr":"Bruxelles","territory_fr":"Laeken","territory":"Laeken \/ Laken","pricing_en":null,"pmr_en":null,"category_en":null,"openinghours":null,"management_en":null,"google_maps":"https:\/\/www.google.com\/maps\/search\/?api=1&query=50.87544184810089%2C4.360536432531936","google_street_view":"https:\/\/www.google.com\/maps\/@?api=1&map_action=pano&viewpoint=50.87544184810089%2C4.360536432531936","geo_point_2d":{"lon":4.3605364283,"lat":50.8754418481}}},{"type":"Feature","geometry":{"coordinates":[4.343841049,50.8359847048],"type":"Point"},"properties":{"objectid":"26","type_en":"URINAL","status":"Te verwijderen \/ A enlever","location":null,"address_fr":"11, Rue Pieremans","postalcode":"1000","municipality_fr":"Bruxelles","territory_fr":"Pentagone","territory":"Pentagone \/ Vijfhoek","pricing_en":null,"pmr_en":null,"category_en":null,"openinghours":null,"management_en":null,"google_maps":"https:\/\/www.google.com\/maps\/search\/?api=1&query=50.83598470482002%2C4.343841053284357","google_street_view":"https:\/\/www.google.com\/maps\/@?api=1&map_action=pano&viewpoint=50.83598470482002%2C4.343841053284357","geo_point_2d":{"lon":4.343841049,"lat":50.8359847048}}},{"type":"Feature","geometry":{"coordinates":[4.3721462247,50.8145056712],"type":"Point"},"properties":{"objectid":"2","type_en":"URINAL","status":"Bestaand \/ Existant","location":null,"address_fr":"589, Avenue Louise","postalcode":"1050","municipality_fr":"Bruxelles","territory_fr":"Louise","territory":"Louise \/ Louiza","pricing_en":null,"pmr_en":null,"category_en":null,"openinghours":null,"management_en":null,"google_maps":"https:\/\/www.google.com\/maps\/search\/?api=1&query=50.814505671190396%2C4.372146228968429","google_street_view":"https:\/\/www.google.com\/maps\/@?api=1&map_action=pano&viewpoint=50.814505671190396%2C4.372146228968429","geo_point_2d":{"lon":4.3721462247,"lat":50.8145056712}}},{"type":"Feature","geometry":{"coordinates":[4.3867446901,50.8471660027],"type":"Point"},"properties":{"objectid":"3","type_en":"URINAL","status":"Bestaand \/ Existant","location":null,"address_fr":"13, Square Marguerite","postalcode":"1000","municipality_fr":"Bruxelles","territory_fr":"Nord-Est","territory":"Nord-Est \/ Noord-Oost","pricing_en":null,"pmr_en":null,"category_en":null,"openinghours":null,"management_en":null,"google_maps":"https:\/\/www.google.com\/maps\/search\/?api=1&query=50.847166002696326%2C4.386744694310964","google_street_view":"https:\/\/www.google.com\/maps\/@?api=1&map_action=pano&viewpoint=50.847166002696326%2C4.386744694310964","geo_point_2d":{"lon":4.3867446901,"lat":50.8471660027}}},{"type":"Feature","geometry":{"coordinates":[4.3511499173,50.837943011],"type":"Point"},"properties":{"objectid":"64","type_en":"URINAL","status":"Bestaand \/ Existant","location":null,"address_fr":"99, Rue des Minimes","postalcode":"1000","municipality_fr":"Bruxelles","territory_fr":"Pentagone","territory":"Pentagone \/ Vijfhoek","pricing_en":null,"pmr_en":null,"category_en":null,"openinghours":null,"management_en":null,"google_maps":"https:\/\/www.google.com\/maps\/search\/?api=1&query=50.837943010985335%2C4.351149921574824","google_street_view":"https:\/\/www.google.com\/maps\/@?api=1&map_action=pano&viewpoint=50.837943010985335%2C4.351149921574824","geo_point_2d":{"lon":4.3511499173,"lat":50.837943011}}},{"type":"Feature","geometry":{"coordinates":[4.3568742779,50.8785510019],"type":"Point"},"properties":{"objectid":"19","type_en":"URINAL","status":"Bestaand \/ Existant","location":null,"address_fr":"1, Avenue du Parc Royal","postalcode":"1020","municipality_fr":"Bruxelles","territory_fr":"Laeken","territory":"Laeken \/ Laken","pricing_en":null,"pmr_en":null,"category_en":null,"openinghours":null,"management_en":null,"google_maps":"https:\/\/www.google.com\/maps\/search\/?api=1&query=50.87855100189051%2C4.35687428212115","google_street_view":"https:\/\/www.google.com\/maps\/@?api=1&map_action=pano&viewpoint=50.87855100189051%2C4.35687428212115","geo_point_2d":{"lon":4.3568742779,"lat":50.8785510019}}},{"type":"Feature","geometry":{"coordinates":[4.3294914716,50.8967038024],"type":"Point"},"properties":{"objectid":"5","type_en":"URINAL","status":"Bestaand \/ Existant","location":null,"address_fr":"24, Avenue Imp\u00e9ratrice Charlotte","postalcode":"1020","municipality_fr":"Bruxelles","territory_fr":"Laeken","territory":"Laeken \/ Laken","pricing_en":null,"pmr_en":null,"category_en":null,"openinghours":null,"management_en":null,"google_maps":"https:\/\/www.google.com\/maps\/search\/?api=1&query=50.8967038024102%2C4.329491475819113","google_street_view":"https:\/\/www.google.com\/maps\/@?api=1&map_action=pano&viewpoint=50.8967038024102%2C4.329491475819113","geo_point_2d":{"lon":4.3294914716,"lat":50.8967038024}}},{"type":"Feature","geometry":{"coordinates":[4.3579901041,50.8765860124],"type":"Point"},"properties":{"objectid":"15","type_en":"URINAL","status":"Bestaand \/ Existant","location":null,"address_fr":"23, Rue Hubert Stiernet","postalcode":"1020","municipality_fr":"Bruxelles","territory_fr":"Laeken","territory":"Laeken \/ Laken","pricing_en":null,"pmr_en":null,"category_en":null,"openinghours":null,"management_en":null,"google_maps":"https:\/\/www.google.com\/maps\/search\/?api=1&query=50.87658601240681%2C4.357990108340369","google_street_view":"https:\/\/www.google.com\/maps\/@?api=1&map_action=pano&viewpoint=50.87658601240681%2C4.357990108340369","geo_point_2d":{"lon":4.3579901041,"lat":50.8765860124}}},{"type":"Feature","geometry":{"coordinates":[4.3384434951,50.8453011127],"type":"Point"},"properties":{"objectid":"32","type_en":"URINAL","status":"Bestaand \/ Existant","location":null,"address_fr":"47, Boulevard de l'Abattoir","postalcode":"1000","municipality_fr":"Bruxelles","territory_fr":"Pentagone","territory":"Pentagone \/ Vijfhoek","pricing_en":null,"pmr_en":null,"category_en":null,"openinghours":null,"management_en":null,"google_maps":"https:\/\/www.google.com\/maps\/search\/?api=1&query=50.84530111267242%2C4.338443499341657","google_street_view":"https:\/\/www.google.com\/maps\/@?api=1&map_action=pano&viewpoint=50.84530111267242%2C4.338443499341657","geo_point_2d":{"lon":4.3384434951,"lat":50.8453011127}}}]}